GLOBALSTAR M063         
1 26081U 00008A   24202.47011505  .00000017  00000+0  14603-2 0  9991
2 26081  51.9941 265.1893 0004352  42.4046 330.7484 11.86157854118214
GLOBALSTAR M062         
1 26082U 00008B   24202.79228529 -.00000175  00000+0 -54550-3 0  9996
2 26082  51.9872 350.2968 0007797 123.4605 330.2296 12.43440109117895
GLOBALSTAR M060         
1 26083U 00008C   24202.53218720 -.00000080  00000+0  10644-3 0  9991
2 26083  52.0008 264.1510 0003736 171.7681 334.9915 12.17637247112137
GLOBALSTAR M064         
1 26084U 00008D   24202.62145652 -.00000087  00000+0 -59608-4 0  9997
2 26084  52.0051   7.5253 0002135 122.7419 237.3619 11.88520338127677
GLOBALSTAR M065         
1 31571U 07020A   24202.63351052 -.00000082  00000+0  11846-3 0  9994
2 31571  51.9879 155.3827 0009878 295.0780 236.0383 12.61974527791547
GLOBALSTAR M069         
1 31573U 07020C   24202.46122022 -.00000071  00000+0  18422-3 0  9995
2 31573  51.9947 111.6901 0000903  27.9613 142.3307 12.62277490792654
GLOBALSTAR M072         
1 31574U 07020D   24202.26452720 -.00000079  00000+0  13980-3 0  9997
2 31574  52.0057 208.2599 0000488 276.6806  96.8817 12.62260196790900
GLOBALSTAR M071         
1 31576U 07020F   24202.48825378 -.00000074  00000+0  16820-3 0  9997
2 31576  52.0063 116.8024 0000981  56.4307 114.7612 12.62270094453844
